KUIPER-00549            
1 69616U 26140AA  26197.57891654  .00013244  00000+0  36576-3 0  9994
2 69616  51.8779 256.7102 0007925  19.5782 340.5507 15.37359191  5750
KUIPER-00550            
1 69617U 26140AB  26198.28543533 -.00064975  00000+0 -21077-2 0  9992
2 69617  51.8797 253.9298 0008462  63.6836 296.5017 15.31514621  5855
KUIPER-00551            
1 69618U 26140AC  26197.55006505  .00016131  00000+0  42958-3 0  9996
2 69618  51.8779 256.5241 0012510 285.0023  74.9579 15.38269864  5753
KUIPER-00554            
1 69619U 26140AD  26198.14085267  .00014041  00000+0  37862-3 0  9991
2 69619  51.8770 253.7329 0011215 300.6753  59.3128 15.38018775  5846
KUIPER-00555            
1 69620U 26140AE  26198.00002315  .00061659  00000+0  16195-2 0  9993
2 69620  51.8806 254.3925 0011401 285.8530  28.5865 15.37969251  5299
KUIPER-00556            
1 69621U 26140AF  26198.13655769  .00021744  00000+0  57332-3 0  9995
2 69621  51.8785 253.7105 0011525 277.0769  82.8908 15.38371238  5848
KUIPER-00557            
1 69622U 26140AG  26198.14732923 -.00002792  00000+0 -63982-4 0  9998
2 69622  51.8798 253.7806 0009566 307.0267  52.9844 15.37514067  5845
KUIPER-00560            
1 69623U 26140AH  26198.25002315 -.00011819  00000+0 -31048-3 0  9993
2 69623  51.8777 253.1790 0009217 320.0403 296.8465 15.37035141  5433
KUIPER-00561            
1 69624U 26140AJ  26197.42390590  .00012821  00000+0  33889-3 0  9994
2 69624  51.8812 257.1893 0007665 305.7051  54.3223 15.38751926  5735
KUIPER-00564            
1 69625U 26140AK  26198.14471032  .00009014  00000+0  25342-3 0  9991
2 69625  51.8796 253.7609 0008705 305.0494  54.9675 15.37236129  5845
KUIPER-00567            
1 69626U 26140AL  26198.00002315  .00049564  00000+0  12911-2 0  9992
2 69626  51.8760 254.3334 0012908 276.1952  61.5916 15.38300447  5800
KUIPER-00573            
1 69627U 26140AM  26198.15118053  .00014263  00000+0  39089-3 0  9990
2 69627  51.8770 253.7966 0009311 292.5254  67.4747 15.37517892  5841
KUIPER-00258            
1 69763U 26151A   26198.25002315  .00004568  00000+0  14442-3 0  9990
2 69763  51.8672 170.6537 0011043 175.1565 351.3222 15.34767131  2693
KUIPER-00526            
1 69764U 26151B   26198.26725946  .00011279  00000+0  31335-3 0  9991
2 69764  51.8761 170.3724 0006405 148.1993 211.9381 15.37347735  2334
KUIPER-00558            
1 69765U 26151C   26198.25002315 -.01086615  00000+0 -34926-1 0  9995
2 69765  51.8774 170.5295 0007842 153.6015  75.8976 15.34456797  2935
KUIPER-00569            
1 69766U 26151D   26197.42053633  .00147069  00000+0  38488-2 0  9999
2 69766  51.8774 174.4478 0003566 139.8001 220.3251 15.37675352  2208
